#dP2024  7 14  0  0  0.00000000      96 __u+U IGS20 EXT  IAC
## 2323      0.00000000   900.00000000 60505 0.0000000000000
+   54   G02G03G04G05G06G07G08G09G10G11G12G13G14G15G16G17G18
+        G19G20G21G22G23G24G25G26G27G28G29G30G31G32R01R02R03
+        R04R05R07R08R09R11R12R13R14R15R16R17R18R19R20R21R22
+        R24R25R26  0  0  0  0  0  0  0  0  0  0  0  0  0  0
+          0  0  0  0  0  0  0  0  0  0  0  0  0  0  0  0  0
++         8  9  9  8  9  9  9  9  9  8  8  8  9  8  8  8  9
++         8  7  9  9  9 10  8  8  8  9  9  9  9  8 11 10  9
++         8  9 10  9  8  8  8  8  8  9  8  9  8  9  9  8  8
++         8  9 10  0  0  0  0  0  0  0  0  0  0  0  0  0  0
++         0  0  0  0  0  0  0  0  0  0  0  0  0  0  0  0  0
%c M  cc GPS ccc cccc cccc cccc cccc ccccc ccccc ccccc ccccc
%c cc cc ccc ccc cccc cccc cccc cccc ccccc ccccc ccccc ccccc
%f  0.0000000  0.000000000  0.00000000000  0.000000000000000
%f  0.0000000  0.000000000  0.00000000000  0.000000000000000
%i    0    0    0    0      0      0      0      0         0
%i    0    0    0    0      0      0      0      0         0
/* IAC                                ULTRA-RAPID PREDICTION
/* S/V CLOCKS ARE ALIGNED TO GNSS TIME                      
/* G:C1WC2W R:C1PC2P E:C1XC5X C:C2IC6I J:C1CC2S             
/* PCV:IGS20_2317 OL/AL:FES2004  NONE     YN ORB:CoN CLK:CoN
*  2024 07 14 14 30  0.00000000
PG02  21682.258980  13959.067064  -6523.392959   -399.172816
PG03  12281.709886  15518.709195  17609.441679    457.721131
PG04  16701.581103   6074.802902  19797.741341    403.622337
PG05  -5629.154399 -25488.112547  -4853.548058   -179.722129
PG06  11628.279601  -9970.813700  21773.146228    161.929714
PG07  24198.986075   4573.221260  -9998.271941    -70.152433
PG08   7026.388554  13837.724192 -21640.177430    273.993497
PG09  22960.433626  -4968.274557  12358.281014    272.924135
PG10 -10697.762164  16858.868403 -17136.628905    -66.006721
PG11  -2773.147005 -17489.510792  19839.283138   -704.660899
PG12 -10478.910820 -18446.984600  15729.447698   -522.206728
PG13   2966.065904 -16735.884360 -20561.708817    664.500944
PG14  13345.112008 -12998.994708 -18808.842822    448.632128
PG15  -8890.111170 -13394.723650 -21640.581307    181.019987
PG16    289.887562  26254.095413  -2084.634811   -236.903533
PG17  22718.787216 -13877.445967   1651.706200    677.638790
PG18 -23678.959997  -3972.317707 -11569.549308   -636.423851
PG19  18155.475453 -16418.365704   9610.142702    510.338490
PG20  -1276.402931 -25888.776124   6210.267444    372.771618
PG21  18400.618556  16022.394004 -11234.696896    108.978826
PG22  10127.403503 -20686.300267 -13062.314082    -39.485288
PG23 -14427.532106   4088.845724 -21879.486331    273.602561
PG24 -19937.754612 -15483.352584  -9326.597176   -483.070976
PG25 -14997.156074  -7590.666725  20287.664671    498.501605
PG26  -5626.455567  23084.996480  11327.292811    120.059786
PG27  -4773.249052  18503.257967 -18555.849660    -31.094109
PG28 -13790.761225   9376.086189  20663.081396   -330.937702
PG29 -22073.214670    307.306687  14809.397222   -589.567471
PG30  18865.796391  -5090.048798 -17952.234181   -357.920493
PG31  -2661.050275  15587.788014  21068.768787   -226.767948
PG32 -20912.732411  15976.156829   2878.669736   -612.193227
PR01 -13766.066976  21409.660755   1792.685630     91.357023
PR02  -3780.339431  18403.209892  17262.541194    -23.698771
PR03   9394.210633   5490.203485  23116.898876    103.765408
PR04  16906.097550  -9974.130219  16324.890724    245.261606
PR05  15649.646518 -20144.149845    769.445077    134.542927
PR07  -9747.385532  -4923.824992 -23011.149256     86.649756
PR08 -16898.634785  10304.895917 -16012.712790     -5.904362
PR09  -8114.073685 -23446.756885  -5706.975369    197.655399
PR11 -12990.858111  -3733.269851  21642.896300     18.226573
PR12  -3602.145474  15470.631321  19986.207185     42.450967
PR13   6310.091360  23272.767741   8314.246478    -49.323859
PR14  14213.014987  17945.713381 -11259.083279     26.717908
PR15  12572.972628   2091.460873 -22071.724152     77.886029
PR16   3536.657186 -15247.022945 -20112.934347     27.360350
PR17  21752.620238   7559.352763 -10914.783579    104.557377
PR18  24927.827001    704.909252   5476.966789    151.929552
PR19  17099.460076  -5461.409164  18112.598766   -283.848605
PR20  -4834.477789 -10967.685182  22514.635559   -116.151786
PR21 -21497.936653  -7850.496047  11294.554671   -117.459056
PR22 -24636.711386   -653.685672  -6543.087297     88.497864
PR24   5871.234975  11199.300318 -22137.046249    -63.716938
PR25 -21651.209219  -8438.780878  10552.273227    -96.407843
PR26 -16572.441032   9250.162534 -17036.367163      4.287323
*  2024 07 14 14 45  0.00000000
PG02  20721.337495  13816.218111  -9181.815784   -399.166210
PG03  12299.321981  17448.143760  15716.765776    457.735989
PG04  14786.977166   7382.349879  20837.039274    403.629394
PG05  -5451.185994 -25885.489168  -2006.200318   -179.723252
PG06  13779.372507  -8850.395009  20995.432468    161.909244
PG07  25043.227814   5245.483614  -7431.712353    -70.145472
PG08   5030.150999  15234.790791 -21213.940420    274.008163
PG09  21818.030560  -3896.539902  14590.011285    272.937756
PG10 -10980.503585  14773.036424 -18811.008857    -66.015450
PG11   -690.937408 -16459.808955  20871.042218   -704.667060
PG12 -10299.742118 -20170.517121  13633.510924   -522.209459
PG13   5024.369373 -17636.368995 -19339.993311    664.503178
PG14  13598.172633 -10768.906959 -20015.400888    448.640141
PG15  -7134.782462 -14969.694122 -21228.468076    181.023850
PG16      1.317907  26289.470844    797.950476   -236.894052
PG17  22814.851998 -13677.319934  -1209.772038    677.632014
PG18 -24646.477971  -4658.331682  -9034.661855   -636.427486
PG19  19134.724513 -16661.309966   6934.715259    510.343352
PG20   -826.346668 -25124.662212   8867.414082    372.771273
PG21  16993.817856  15661.866848 -13532.665515    108.976542
PG22  10289.299416 -19011.897331 -15207.178215    -39.489396
PG23 -14703.911623   1590.176001 -22037.296275    273.610580
PG24 -18778.498338 -15327.101765 -11748.047672   -483.072465
PG25 -15109.939294  -9913.955897  19213.703228    498.501924
PG26  -6155.062376  21682.862108  13601.409597    120.053593
PG27  -6500.255884  19504.719541 -16867.186762    -31.094904
PG28 -15860.291611   8357.015980  19588.164791   -330.952011
PG29 -20581.114261   -727.943763  16792.313505   -589.565742
PG30  20574.236230  -4063.526978 -16298.105384   -357.914651
PG31  -4901.745531  14509.650265  21464.049426   -226.767691
PG32 -21181.692663  15841.037482     13.721729   -612.191464
PR01 -13653.215504  21509.983309  -1418.636406     91.358124
PR02  -4818.401968  20097.204531  14949.421021    -23.698844
PR03   7792.453246   7832.105348  23032.477311    103.766085
PR04  15579.018242  -8289.097904  18451.601660    245.263046
PR05  15332.832099 -20010.324756   3978.873623    134.543522
PR07  -8134.080451  -7274.374507 -23019.016476     86.650578
PR08 -15608.264921   8616.208489 -18169.874054     -5.904752
PR09  -7770.735110 -22615.884882  -8732.248471    197.657374
PR11 -14189.390499  -6026.586849  20330.985882     18.225597
PR12  -4663.639381  13156.889974  21378.135219     42.451478
PR13   5874.492674  22142.598034  11212.499577    -49.324208
PR14  14847.283293  18984.949498  -8372.815124     26.718105
PR15  13774.596066   4466.276923 -20976.717570     77.885755
PR16   4614.711185 -12911.260176 -21484.864272     27.360722
PR17  20251.258003   7275.580879 -13655.742488    104.560522
PR18  25422.952836    545.684456   2286.388556    151.931337
PR19  19205.273030  -5345.755738  15901.596978   -283.849791
PR20  -2042.183758 -10568.021372  23126.640400   -116.152425
PR21 -19957.435088  -7537.338009  14005.261667   -117.461843
PR22 -25266.685065   -583.536952  -3405.854442     88.492202
PR24   3105.710290  10938.588456 -22819.189399    -63.718183
PR25 -20207.044442  -8133.279035  13297.346369    -96.409553
PR26 -15235.371185   7462.671477 -19039.245677      4.289181
EOF
